MAKERSAT 0              
1 43016U 17073D   26109.08909520  .00018931  00000+0  54264-3 0  9998
2 43016  97.4709 351.2385 0114502 122.4905 238.7465 15.29544158457426
SIRION PATHFINDER-2     
1 43759U 18099B   26109.10579567  .00003678  00000+0  20599-3 0  9994
2 43759  97.4309 159.5744 0010063 137.5602 222.6410 15.13994117403680
CORVUS BC4              
1 43767U 18099K   26109.09952861  .00003071  00000+0  18240-3 0  9990
2 43767  97.4127 153.8129 0007969 193.8260 166.2753 15.12009176403478
M2 PATHFINDER           
1 45727U 20037E   26109.05514358  .00001614  00000+0  11999-3 0  9999
2 45727  97.8174 299.6259 0011434   1.5294 358.5964 15.04418869316601
NETSAT-4                
1 46504U 20068U   26109.17004064  .00015787  00000+0  37331-3 0  9992
2 46504  97.8631 112.7595 0006566 152.8465 207.3126 15.41897824306671
NETSAT-3                
1 46505U 20068V   26108.73981536  .00017292  00000+0  42615-3 0  9996
2 46505  97.8672 110.5923 0005752 168.2604 191.8776 15.40628299306529
NETSAT-1                
1 46506U 20068W   26108.96722566  .00010541  00000+0  33115-3 0  9993
2 46506  97.8757 105.8414 0004383 190.4024 169.7127 15.33196347306225
NETSAT-2                
1 46507U 20068X   26108.76239268  .00020597  00000+0  46122-3 0  9998
2 46507  97.8645 112.0241 0004047 169.7223 190.4107 15.43483225306568
GREENCUBE (IO-117)      
1 53109U 22080E   26106.55228240 -.00000003  00000+0  00000+0 0  9995
2 53109  70.1493 319.6911 0008887 303.6327  56.3485  6.42583340 88102
SITRO-AIS 5 (KATYS)     
1 57176U 23091L   26109.16074546  .00010025  00000+0  36784-3 0  9990
2 57176  97.5102 172.5475 0010174 315.2634  44.7784 15.28116240155320
SITRO-AIS 6 (CHIRKIN)   
1 57192U 23091AC  26109.20623639  .00004956  00000+0  20139-3 0  9999
2 57192  97.5110 172.0113 0010753 320.0640  39.9805 15.24985760155298
SITRO-AIS 8 (ANOKHIN)   
1 57193U 23091AD  26109.14565471  .00011487  00000+0  39073-3 0  9996
2 57193  97.5096 173.8926 0009269 311.1088  48.9351 15.30564393155412
SITRO-AIS 7 (FARTUSHNIY)
1 57194U 23091AE  26109.19789906  .00004997  00000+0  20471-3 0  9993
2 57194  97.5108 171.8567 0010641 321.2050  38.8422 15.24705095155284
SITRO-AIS 10 (BURDAEV)  
1 57199U 23091AK  26109.15288976  .00016509  00000+0  46661-3 0  9996
2 57199  97.5116 178.3771 0005312 281.1775  78.8871 15.36406556155694
SITRO-AIS 9 (SHCHUKIN)  
1 57201U 23091AM  26109.16172179  .00016639  00000+0  47671-3 0  9994
2 57201  97.5114 178.1595 0005544 281.4189  78.6432 15.35977730155683
SITRO-AIS 12 (SMIRENNIY)
1 57204U 23091AQ  26109.16322316  .00017163  00000+0  48739-3 0  9996
2 57204  97.5125 178.5921 0005237 273.6360  86.4285 15.36249674155704
SITRO-AIS 11 (SHEFFER)  
1 57208U 23091AU  26109.19196684  .00017438  00000+0  48922-3 0  9999
2 57208  97.5123 178.8333 0005194 272.9786  87.0863 15.36626541155725
SITRO-AIS 25            
1 59066U 24039R   26109.20678635  .00003853  00000+0  30300-3 0  9996
2 59066  95.3928 194.5735 0146309 173.4796 186.8380 14.93017809115922
SITRO-AIS 26            
1 59067U 24039S   26109.20033354  .00004318  00000+0  34073-3 0  9998
2 59067  95.3930 194.4785 0146623 173.9963 186.3065 14.92825961115919
SITRO-AIS 27            
1 59068U 24039T   26109.18685278  .00005432  00000+0  42423-3 0  9990
2 59068  95.3928 194.7138 0145796 172.7612 187.5768 14.93228706115930
SITRO-AIS 28            
1 59071U 24039U   26109.16566274  .00004262  00000+0  33322-3 0  9994
2 59071  95.3925 194.7434 0145694 172.7607 187.5771 14.93260395115935
GRBBETA                 
1 60237U 24128C   26109.14265139  .00003198  00000+0  22669-3 0  9992
2 60237  61.9903  63.3455 0047727 122.1850 238.3884 15.06157169 97373
OOV-CUBE (TUBSAT-30)    
1 60240U 24128F   26109.16245125  .00001586  00000+0  13161-3 0  9997
2 60240  61.9939  71.3416 0051162 120.8538 239.7601 15.02476744 97245
ROBUSTA-3A (MEDITERRAN*)
1 60243U 24128J   26108.45138728  .00005684  00000+0  34505-3 0  9999
2 60243  61.9870  59.3366 0048405 115.9119 244.6977 15.10727724 97391
LASARSAT                
1 62391U 24247Q   26109.05587597  .00027666  00000+0  62346-3 0  9994
2 62391  44.9754 233.5640 0005990 314.5419  45.4980 15.42808032 74171
CROCUBE                 
1 62394U 24247T   26108.34030395  .00026570  00000+0  57196-3 0  9997
2 62394  44.9727 235.7424 0005680 308.5922  51.4457 15.44188514 74080
FORESAIL-1 PRIME        
1 66778U 25276DS  26109.14783978  .00003949  00000+0  19668-3 0  9998
2 66778  97.4222 183.5173 0001447 353.5562   6.5653 15.18151076 21446
KNACKSAT-2              
1 67683U 98067XZ  26109.06014733  .00034712  00000+0  50937-3 0  9995
2 67683  51.6309 230.7388 0011823 338.3227  21.7262 15.55107935 11069
